{"type": "FeatureCollection", "features": [{"type": "Feature", "geometry": {"type": "Point", "coordinates": [93.0343949, 24.2130835]}, "properties": {"osm_id": 6449755935, "osm_type": "node", "addr:city": "Sipuikawn", "addr:postcode": "795143", "amenity": "school", "name": "Children's Training School"}}, {"type": "Feature", "geometry": {"type": "Point", "coordinates": [92.7171902, 23.7066402]}, "properties": {"osm_id": 6886476286, "osm_type": "node", "addr:street": "Tlangnuam", "amenity": "school", "name": "Mary Mount School"}}, {"type": "Feature", "geometry": {"type": "Point", "coordinates": [92.7540738, 23.7296658]}, "properties": {"osm_id": 9677195817, "osm_type": "node", "amenity": "school", "name": "Ferrando"}}, {"type": "Feature", "geometry": {"type": "Point", "coordinates": [92.7113796, 23.7316385]}, "properties": {"osm_id": 1227079041, "osm_type": "way", "addr:city": "Aizawl", "addr:district": "Aizawl", "addr:postcode": "796001", "addr:street": "Dinthar Tlang", "amenity": "school", "grades": "0-12", "name": "Hermon School", "name:pa": "\u0a39\u0a30\u0a2e\u0a28 \u0a38\u0a15\u0a42\u0a32", "name:ur": "\u06c1\u0631\u0645\u0646 \u0633\u06a9\u0648\u0644", "religion": "christian"}}, {"type": "Feature", "geometry": {"type": "Point", "coordinates": [92.709129, 23.7376444]}, "properties": {"osm_id": 1525667194, "osm_type": "way", "addr:city": "Aizawl", "addr:district": "Aizawl", "addr:postcode": "796009", "amenity": "school", "denomination": "adventist", "education": "school", "name": "Hellen Lowry School", "religion": "christian"}}], "metadata": {"source": "OpenStreetMap Overpass API", "retrieved_at": "2026-09-20T10:58:52.005220+00:00"}}