{"type": "FeatureCollection", "features": [{"type": "Feature", "geometry": {"type": "Point", "coordinates": [92.6740779, 24.2334996]}, "properties": {"osm_id": 6909859202, "osm_type": "node", "addr:district": "Kolasib", "addr:full": "Diakkawn", "addr:postcode": "796081", "addr:state": "Mizoram", "amenity": "hospital", "name": "Nazareth Hospital, Kolasib", "source": "OpenGovernmentData"}}, {"type": "Feature", "geometry": {"type": "Point", "coordinates": [92.6766193, 24.2314023]}, "properties": {"osm_id": 6909859217, "osm_type": "node", "addr:district": "Kolasib", "addr:full": "Venglai Main Road,Opp. State Bank Of India,Kolasib", "addr:postcode": "796081", "addr:state": "Mizoram", "addr:subdistrict": "Bilkhawthlir (New Rd)", "amenity": "hospital", "description": "District Hospital", "name": "District Hospital,Kolasib", "source": "OpenGovernmentData"}}, {"type": "Feature", "geometry": {"type": "Point", "coordinates": [92.7310816, 23.7555439]}, "properties": {"osm_id": 6909859294, "osm_type": "node", "addr:district": "Aizawl", "addr:full": "Durtlang-Leitan Road,Beside Shiv Mandir,Bawngkawn", "addr:postcode": "796014", "addr:state": "Mizoram", "amenity": "hospital", "name": "Greenwood Hospital", "source": "OpenGovernmentData"}}, {"type": "Feature", "geometry": {"type": "Point", "coordinates": [92.9630148, 23.6821385]}, "properties": {"osm_id": 6909859305, "osm_type": "node", "addr:district": "Aizawl", "addr:full": "Saitual Road,Bethel Presbyterian Church,Saitual", "addr:postcode": "796261", "addr:state": "Mizoram", "addr:subdistrict": "Thingsulthliah (Part)", "amenity": "hospital", "name": "Sub-District Hospital,Saitual", "source": "OpenGovernmentData"}}, {"type": "Feature", "geometry": {"type": "Point", "coordinates": [92.9522659, 24.2261924]}, "properties": {"osm_id": 6909859505, "osm_type": "node", "addr:district": "Aizawl", "addr:full": "NH306A,Near ICI Church,Sakawrdai", "addr:postcode": "796111", "addr:state": "Mizoram", "addr:subdistrict": "Darlawn", "amenity": "hospital", "description": "Community Health Center", "healthcare": "centre", "name": "CHC, Sakawrdai", "source": "OpenGovernmentData"}}, {"type": "Feature", "geometry": {"type": "Point", "coordinates": [92.7195313, 23.7093053]}, "properties": {"osm_id": 6909859524, "osm_type": "node", "addr:district": "Aizawl", "addr:full": "Kulikawn", "addr:postcode": "796001", "addr:state": "Mizoram", "amenity": "hospital", "name": "Alpha Hospital", "source": "OpenGovernmentData"}}, {"type": "Feature", "geometry": {"type": "Point", "coordinates": [92.7224247, 23.7489767]}, "properties": {"osm_id": 6909859549, "osm_type": "node", "addr:district": "Aizawl", "addr:full": "Chaltlang Road,Opp. Union Bank Of India,Chaltlang", "addr:postcode": "796012", "addr:state": "Mizoram", "amenity": "hospital", "name": "Nazareth Hospitals", "source": "OpenGovernmentData"}}, {"type": "Feature", "geometry": {"type": "Point", "coordinates": [92.7281633, 23.6242176]}, "properties": {"osm_id": 6909859597, "osm_type": "node", "addr:district": "Aizawl", "addr:full": "Near Falkawn Chawhmeh Bazar,Falkawn", "addr:postcode": "796005", "addr:state": "Mizoram", "amenity": "hospital", "name": "State Referral Hospital,Falkawn", "source": "OpenGovernmentData"}}, {"type": "Feature", "geometry": {"type": "Point", "coordinates": [92.726619, 23.7504614]}, "properties": {"osm_id": 6911271636, "osm_type": "node", "addr:district": "Aizawl", "addr:full": "Bawngkawn-Chhimneng Road,Near Transport Office,Aizawl", "addr:postcode": "796012", "addr:state": "Mizoram", "amenity": "hospital", "name": "Bethesda Hospital", "source": "OpenGovernmentData"}}, {"type": "Feature", "geometry": {"type": "Point", "coordinates": [92.8594648, 23.687823]}, "properties": {"osm_id": 6911271641, "osm_type": "node", "addr:district": "Aizawl", "addr:full": "Durtlang", "addr:postcode": "796001", "addr:state": "Mizoram", "amenity": "hospital", "name": "Presbyterian Hospital", "source": "OpenGovernmentData"}}, {"type": "Feature", "geometry": {"type": "Point", "coordinates": [92.7159388, 23.7334106]}, "properties": {"osm_id": 7127376539, "osm_type": "node", "addr:district": "Aizawl", "addr:full": "Jail Veng,Opp.Aizawl Police Station,Dawrpui", "addr:postcode": "796001", "addr:state": "Mizoram", "amenity": "hospital", "name": "Vaivenga Hospital", "source": "OpenGovernmentData"}}, {"type": "Feature", "geometry": {"type": "Point", "coordinates": [92.7175467, 23.7189081]}, "properties": {"osm_id": 7127376542, "osm_type": "node", "addr:district": "Aizawl", "addr:full": "Peter Street,Beside Axis Bank,Aizawl", "addr:postcode": "796001", "addr:state": "Mizoram", "amenity": "hospital", "name": "Aizawl Hospital & Research Centre", "source": "OpenGovernmentData"}}, {"type": "Feature", "geometry": {"type": "Point", "coordinates": [92.7154669, 23.7085438]}, "properties": {"osm_id": 7127376544, "osm_type": "node", "addr:district": "Aizawl", "addr:state": "Mizoram", "amenity": "hospital", "description": "Government Hospital", "name": "Kulikawn Hospital", "source": "OpenGovernmentData"}}, {"type": "Feature", "geometry": {"type": "Point", "coordinates": [92.7193766, 23.7110935]}, "properties": {"osm_id": 7127376552, "osm_type": "node", "addr:district": "Aizawl", "addr:full": "Kulikawn Road,Near Police Station,Kulikawn", "addr:postcode": "796005", "addr:state": "Mizoram", "amenity": "hospital", "name": "B.N. Hospital,Kulikawn", "source": "OpenGovernmentData"}}, {"type": "Feature", "geometry": {"type": "Point", "coordinates": [92.85481, 23.335851]}, "properties": {"osm_id": 7621733287, "osm_type": "node", "addr:district": "Serchhip", "addr:full": "College Peng, New Serchhip", "addr:postcode": "796181", "addr:state": "Mizoram", "amenity": "hospital", "name": "Mercy Hospital", "source": "Local Knowledge"}}, {"type": "Feature", "geometry": {"type": "Point", "coordinates": [92.723445, 23.744316]}, "properties": {"osm_id": 7621733288, "osm_type": "node", "addr:district": "Aizawl", "addr:full": "Chanmari - Ramhlun Rd, Ramhlun Venglai, Chaltlang", "addr:postcode": "796012", "addr:state": "Mizoram", "amenity": "hospital", "name": "LRM Hospital", "source": "Local Knowledge"}}, {"type": "Feature", "geometry": {"type": "Point", "coordinates": [92.717955, 23.7311693]}, "properties": {"osm_id": 7621733298, "osm_type": "node", "addr:district": "Aizawl", "addr:full": "Saron Veng - Bungkawn Road", "addr:postcode": "796001", "addr:state": "Mizoram", "amenity": "hospital", "healthcare": "hospital", "name": "Rosewood Hospital", "name:pa": "\u0a30\u0a4b\u0a1c\u0a3c\u0a35\u0a41\u0a71\u0a21 \u0a39\u0a38\u0a2a\u0a24\u0a3e\u0a32", "name:ur": "\u0631\u0648\u0632 \u0648\u0648\u0688 \u06c1\u0633\u067e\u062a\u0627\u0644"}}, {"type": "Feature", "geometry": {"type": "Point", "coordinates": [92.7249518, 23.68029]}, "properties": {"osm_id": 7621733299, "osm_type": "node", "addr:district": "Aizawl", "addr:full": "Silaimual, Melthum Kawn", "addr:postcode": "796005", "addr:state": "Mizoram", "amenity": "hospital", "name": "Zotres Hospital", "source": "Local Knowledge"}}, {"type": "Feature", "geometry": {"type": "Point", "coordinates": [92.7164176, 23.716618]}, "properties": {"osm_id": 7621733301, "osm_type": "node", "addr:district": "Aizawl", "addr:full": "Rev Chhuahkhama Road", "addr:postcode": "796005", "addr:state": "Mizoram", "amenity": "hospital", "name": "City Hospital", "source": "Local Knowledge"}}, {"type": "Feature", "geometry": {"type": "Point", "coordinates": [92.7295691, 23.7923544]}, "properties": {"osm_id": 8195862931, "osm_type": "node", "addr:district": "Aizawl", "addr:full": "Durtlang North", "addr:postcode": "796025", "addr:state": "Mizoram", "amenity": "hospital", "name": "Government Hospital, Durtlang North", "source": "Local Knowledge"}}, {"type": "Feature", "geometry": {"type": "Point", "coordinates": [92.7078441, 23.7311933]}, "properties": {"osm_id": 11378893230, "osm_type": "node", "addr:city": "Aizawl", "addr:district": "Aizawl", "addr:postcode": "796009", "addr:street": "Tuikual Bridge", "amenity": "hospital", "healthcare": "hospital", "name": "Ebenezar Hospital"}}, {"type": "Feature", "geometry": {"type": "Point", "coordinates": [92.7166346, 23.7319153]}, "properties": {"osm_id": 487812363, "osm_type": "way", "addr:district": "Aizawl", "addr:full": "Aizawl", "addr:postcode": "796001", "addr:state": "Mizoram", "amenity": "hospital", "emergency": "yes", "healthcare": "hospital", "name": "Aizawl Civil Hospital", "operator": "State Governement", "operator:type": "government", "source": "OpenGovernmentData"}}, {"type": "Feature", "geometry": {"type": "Point", "coordinates": [92.7078652, 23.7313308]}, "properties": {"osm_id": 641625290, "osm_type": "way", "amenity": "hospital", "healthcare": "hospital", "name": "Ebenezar Hospital Area"}}, {"type": "Feature", "geometry": {"type": "Point", "coordinates": [92.7093596, 23.7366289]}, "properties": {"osm_id": 662506631, "osm_type": "way", "amenity": "hospital", "name": "Aizawl Adventist Hospital", "source": "GRID", "wikidata": "Q4699417"}}, {"type": "Feature", "geometry": {"type": "Point", "coordinates": [92.7252086, 23.6805339]}, "properties": {"osm_id": 1188878378, "osm_type": "way", "amenity": "hospital", "healthcare": "hospital", "name": "Trinity Hospital"}}], "metadata": {"source": "OpenStreetMap Overpass API", "retrieved_at": "2026-09-20T10:58:49.179293+00:00"}}