{"type": "FeatureCollection", "features": [{"type": "Feature", "geometry": {"type": "Point", "coordinates": [94.0960672, 25.6694195]}, "properties": {"osm_id": 6255303391, "osm_type": "node", "addr:district": "Kohima", "addr:full": "Naga Hospital Authority, Hospital Colony, NH - 29", "addr:postcode": "797001", "addr:state": "Nagaland", "amenity": "hospital", "email": "info@vision-studio.com", "healthcare": "hospital", "name": "Naga Hospital", "operator:type": "private", "source": "OpenGovernmentData", "website": "http://www.nhos.symbios.co.in/"}}, {"type": "Feature", "geometry": {"type": "Point", "coordinates": [94.1056576, 25.6688782]}, "properties": {"osm_id": 6763195716, "osm_type": "node", "addr:district": "Kohima", "addr:full": "Phool Bari", "addr:postcode": "797001", "addr:state": "Nagaland", "amenity": "hospital", "emergency": "yes", "healthcare": "hospital", "name": "Oking Hospital And Research Clinic Pvt Ltd", "source": "OpenGovernmentData"}}, {"type": "Feature", "geometry": {"type": "Point", "coordinates": [94.1308005, 25.5242888]}, "properties": {"osm_id": 7614502546, "osm_type": "node", "addr:district": "Kohima", "addr:full": "Khuzama", "addr:postcode": "797005", "addr:state": "Nagaland", "amenity": "hospital", "name": "Khuzama T.B. Hospital", "source": "Local Knowledge"}}, {"type": "Feature", "geometry": {"type": "Point", "coordinates": [94.228953, 25.5381468]}, "properties": {"osm_id": 7614502572, "osm_type": "node", "addr:district": "Phek", "addr:full": "Zuketsa", "addr:postcode": "797107", "addr:state": "Nagaland", "amenity": "hospital", "healthcare": "hospital", "name": "Zuketsa Hospital", "source": "Local Knowledge"}}, {"type": "Feature", "geometry": {"type": "Point", "coordinates": [94.189416, 25.592514]}, "properties": {"osm_id": 7614502575, "osm_type": "node", "addr:district": "Kohima", "addr:full": "Kohima", "addr:postcode": "797005", "addr:state": "Nagaland", "amenity": "hospital", "name": "Kezocha Hospital", "source": "Local Knowledge"}}, {"type": "Feature", "geometry": {"type": "Point", "coordinates": [94.108014, 25.732764]}, "properties": {"osm_id": 7614502578, "osm_type": "node", "addr:district": "Kohima", "addr:full": "Thizama", "addr:postcode": "797004", "addr:state": "Nagaland", "amenity": "hospital", "name": "Regimental Hospital", "source": "Local Knowledge"}}, {"type": "Feature", "geometry": {"type": "Point", "coordinates": [94.1032895, 25.6448895]}, "properties": {"osm_id": 7614502599, "osm_type": "node", "addr:district": "Kohima", "addr:full": "Tekhuba", "addr:postcode": "797005", "addr:state": "Nagaland", "amenity": "hospital", "name": "Kohima Mental Hospital", "source": "Local Knowledge"}}, {"type": "Feature", "geometry": {"type": "Point", "coordinates": [94.1225184, 25.6036868]}, "properties": {"osm_id": 8205237694, "osm_type": "node", "addr:district": "Kohima", "addr:full": "Zakhama", "addr:postcode": "797005", "addr:state": "Nagaland", "amenity": "hospital", "name": "Government Hospital, Zakhama", "source": "Local Knowledge"}}, {"type": "Feature", "geometry": {"type": "Point", "coordinates": [94.0990558, 25.6556899]}, "properties": {"osm_id": 10248459009, "osm_type": "node", "amenity": "hospital", "name": "Kohima Diagnostic Center"}}, {"type": "Feature", "geometry": {"type": "Point", "coordinates": [94.1232645, 25.6949558]}, "properties": {"osm_id": 11577200069, "osm_type": "node", "amenity": "hospital", "email": "nimsrkohima@gmail.com", "name": "Nagaland Institute of Medical Sciences and  Research (NIMSR)", "opening_hours": "Mo-Su 09:00-16:00", "operator": "Government of Nagaland", "website": "https://nimsr.nagaland.gov.in"}}], "metadata": {"source": "OpenStreetMap Overpass API", "retrieved_at": "2026-09-20T10:56:48.490618+00:00"}}