{"type": "FeatureCollection", "features": [{"type": "Feature", "geometry": {"type": "Point", "coordinates": [94.0300196, 25.6497445]}, "properties": {"osm_id": 6255099011, "osm_type": "node", "amenity": "school", "name": "John Bosco School"}}, {"type": "Feature", "geometry": {"type": "Point", "coordinates": [94.1069581, 25.7031005]}, "properties": {"osm_id": 6763141489, "osm_type": "node", "addr:city": "Kohima", "addr:postcode": "797004", "addr:street": "New Secretariat Road", "amenity": "school", "name": "Radiant School", "operator": "Private", "operator:type": "private", "religion": "christian"}}, {"type": "Feature", "geometry": {"type": "Point", "coordinates": [94.1204465, 25.6568853]}, "properties": {"osm_id": 6763207903, "osm_type": "node", "amenity": "school", "name": "The Vineyard School"}}, {"type": "Feature", "geometry": {"type": "Point", "coordinates": [94.0797858, 25.6796323]}, "properties": {"osm_id": 7344991585, "osm_type": "node", "addr:street": "Seithogei Tsutuonuomia Model Vill Road", "amenity": "school", "email": "zynorique@gmail.com", "name": "Seithogei Living School", "operator": "Richard Belho", "phone": "+91-9862199921", "website": "https://www.seithogei.com/"}}, {"type": "Feature", "geometry": {"type": "Point", "coordinates": [94.0136836, 25.6381979]}, "properties": {"osm_id": 11323131271, "osm_type": "node", "amenity": "school", "name": "Government High School"}}, {"type": "Feature", "geometry": {"type": "Point", "coordinates": [94.0349402, 25.6939808]}, "properties": {"osm_id": 11351463451, "osm_type": "node", "amenity": "school", "grades": "1-4", "name": "Government Primary School", "operator": "Department of School Education", "operator:type": "government", "operator:wikidata": "Q134484514", "religion": "christian"}}, {"type": "Feature", "geometry": {"type": "Point", "coordinates": [94.0733032, 25.6689501]}, "properties": {"osm_id": 1040372336, "osm_type": "way", "amenity": "school", "name": "Govt. Higher Sec. School"}}], "metadata": {"source": "OpenStreetMap Overpass API", "retrieved_at": "2026-09-20T10:56:49.507198+00:00"}}