{
  "type": "FeatureCollection",
  "crs": {
    "type": "name",
    "properties": {
      "name": "urn:ogc:def:crs:OGC:1.3:CRS84"
    }
  },
  "features": [
    {
      "type": "Feature",
      "geometry": {
        "type": "Point",
        "coordinates": [
          94.027,
          25.6885
        ]
      },
      "properties": {
        "event_id": "LS_KOH_2024_001",
        "location_name": "Dzudza Bridge (NH-29)",
        "district": "Kohima",
        "state": "Nagaland",
        "event_date": "2024-08-18",
        "event_time": "04:30",
        "cell_id": "KOH_01378",
        "source": "NSDMA / Kohima District Administration / PIB",
        "description": "Catastrophic mudslide and slope failure cutting off NH-29; stranded 100+ trucks and disrupted primary regional supply line"
      }
    },
    {
      "type": "Feature",
      "geometry": {
        "type": "Point",
        "coordinates": [
          94.1192,
          25.6025
        ]
      },
      "properties": {
        "event_id": "LS_KOH_2024_002",
        "location_name": "Kisama Heritage Village Road",
        "district": "Kohima",
        "state": "Nagaland",
        "event_date": "2024-06-29",
        "event_time": "11:00",
        "cell_id": "KOH_03175",
        "source": "NSDMA / Nagaland Post",
        "description": "Severe land sinking and tension cracks on Kigwema-Mima-Chakhabama road sector near Kisama heritage area following incessant monsoon rains"
      }
    },
    {
      "type": "Feature",
      "geometry": {
        "type": "Point",
        "coordinates": [
          94.112,
          25.626
        ]
      },
      "properties": {
        "event_id": "LS_KOH_2023_001",
        "location_name": "Phesama Sector (NH-29 South)",
        "district": "Kohima",
        "state": "Nagaland",
        "event_date": "2023-07-21",
        "event_time": "15:45",
        "cell_id": "KOH_03071",
        "source": "NSDMA / GSI Post-Disaster Report",
        "description": "Reactivation of chronic translational slope failure along NH-29 Kohima-Imphal highway due to prolonged precipitation"
      }
    },
    {
      "type": "Feature",
      "geometry": {
        "type": "Point",
        "coordinates": [
          94.0195,
          25.7032
        ]
      },
      "properties": {
        "event_id": "LS_KOH_2022_001",
        "location_name": "Sechu Zubza Western Slope",
        "district": "Kohima",
        "state": "Nagaland",
        "event_date": "2022-07-09",
        "event_time": "08:15",
        "cell_id": "KOH_01187",
        "source": "NSDMA / Morung Express",
        "description": "Debris flow and boulder collapse causing total blockage of inter-district transit route"
      }
    },
    {
      "type": "Feature",
      "geometry": {
        "type": "Point",
        "coordinates": [
          94.095,
          25.667
        ]
      },
      "properties": {
        "event_id": "LS_KOH_2021_001",
        "location_name": "Tarliedzu Area",
        "district": "Kohima",
        "state": "Nagaland",
        "event_date": "2021-09-04",
        "event_time": "14:00",
        "cell_id": "KOH_02654",
        "source": "Nagaland Dept. of Geology and Mining / GSI",
        "description": "Deep-seated rotational and translational slide in fractured Disang shales destabilized by heavy monsoonal runoff"
      }
    },
    {
      "type": "Feature",
      "geometry": {
        "type": "Point",
        "coordinates": [
          92.7165,
          23.6895
        ]
      },
      "properties": {
        "event_id": "LS_AIZ_2024_001",
        "location_name": "Melthum Stone Quarry",
        "district": "Aizawl",
        "state": "Mizoram",
        "event_date": "2024-05-28",
        "event_time": "06:00",
        "cell_id": "AIZ_01960",
        "source": "MSDMA / NDRF / PIB",
        "description": "Massive quarry slope collapse during Cyclone Remal causing 14 fatalities and widespread debris inundation"
      }
    },
    {
      "type": "Feature",
      "geometry": {
        "type": "Point",
        "coordinates": [
          92.7231,
          23.6802
        ]
      },
      "properties": {
        "event_id": "LS_AIZ_2024_002",
        "location_name": "Hlimen Veng Southern Ridge",
        "district": "Aizawl",
        "state": "Mizoram",
        "event_date": "2024-05-28",
        "event_time": "07:30",
        "cell_id": "AIZ_02185",
        "source": "MSDMA / Local Disaster Task Force",
        "description": "Severe landslide and residential building collapses triggered by extreme precipitation during Cyclone Remal"
      }
    },
    {
      "type": "Feature",
      "geometry": {
        "type": "Point",
        "coordinates": [
          92.7302,
          23.7781
        ]
      },
      "properties": {
        "event_id": "LS_AIZ_2023_001",
        "location_name": "Durtlang Hills Highway Sector",
        "district": "Aizawl",
        "state": "Mizoram",
        "event_date": "2023-07-02",
        "event_time": "16:20",
        "cell_id": "AIZ_02321",
        "source": "MSDMA / PWD Mizoram",
        "description": "Slope failure along Durtlang ridge road causing partial highway collapse and structural danger to downslope dwellings"
      }
    },
    {
      "type": "Feature",
      "geometry": {
        "type": "Point",
        "coordinates": [
          92.7388,
          23.8245
        ]
      },
      "properties": {
        "event_id": "LS_AIZ_2022_001",
        "location_name": "Sihphir Approach Road (NH-54)",
        "district": "Aizawl",
        "state": "Mizoram",
        "event_date": "2022-06-18",
        "event_time": "12:00",
        "cell_id": "AIZ_02559",
        "source": "MSDMA / All India Radio Aizawl",
        "description": "Highway blockage due to mud and rock slide along northern arterial corridor"
      }
    },
    {
      "type": "Feature",
      "geometry": {
        "type": "Point",
        "coordinates": [
          92.729,
          23.749
        ]
      },
      "properties": {
        "event_id": "LS_AIZ_2021_001",
        "location_name": "Ramhlun Vengthlang Slope",
        "district": "Aizawl",
        "state": "Mizoram",
        "event_date": "2021-08-27",
        "event_time": "05:45",
        "cell_id": "AIZ_02314",
        "source": "Aizawl Municipal Corporation (AMC)",
        "description": "Shallow translational slope failure threatening multiple houses on steep urban hillside"
      }
    },
    {
      "type": "Feature",
      "geometry": {
        "type": "Point",
        "coordinates": [
          92.736,
          23.761
        ]
      },
      "properties": {
        "event_id": "LS_AIZ_2020_001",
        "location_name": "Bawngkawn Chhimveng",
        "district": "Aizawl",
        "state": "Mizoram",
        "event_date": "2020-09-22",
        "event_time": "18:10",
        "cell_id": "AIZ_02431",
        "source": "MSDMA Monsoon Update",
        "description": "Urban hillside debris slide damaging boundary retaining walls and local road"
      }
    }
  ]
}